[{"OBJECT_NAME":"STARLINK-5682","OBJECT_ID":"2023-015J","EPOCH":"2026-03-09T21:42:07.975008","MEAN_MOTION":15.03842268,"ECCENTRICITY":0.00022019,"INCLINATION":43.0021,"RA_OF_ASC_NODE":325.056,"ARG_OF_PERICENTER":186.9821,"MEAN_ANOMALY":173.0991,"EPHEMERIS_TYPE":0,"CLASSIFICATION_TYPE":"U","NORAD_CAT_ID":55457,"ELEMENT_SET_NO":999,"REV_AT_EPOCH":17078,"BSTAR":0.0083451886,"MEAN_MOTION_DOT":0.00118501,"MEAN_MOTION_DDOT":0},{"OBJECT_NAME":"FENGYUN 1C DEB","OBJECT_ID":"1999-025AXZ","EPOCH":"2026-03-08T14:14:59.144640","MEAN_MOTION":14.45531732,"ECCENTRICITY":0.02627631,"INCLINATION":98.3534,"RA_OF_ASC_NODE":127.2715,"ARG_OF_PERICENTER":27.4342,"MEAN_ANOMALY":334.0445,"EPHEMERIS_TYPE":0,"CLASSIFICATION_TYPE":"U","NORAD_CAT_ID":30887,"ELEMENT_SET_NO":999,"REV_AT_EPOCH":99368,"BSTAR":0.00075941367,"MEAN_MOTION_DOT":4.058e-5,"MEAN_MOTION_DDOT":0}]
